ONEWEB-0086             
1 45456U 20020AJ  24044.93254830  .00000458  00000+0  12556-2 0  9993
2 45456  87.9000 190.8664 0002022 102.0912 258.0443 13.11415533190648
ONEWEB-0088             
1 45457U 20020AK  24044.90980792  .00000000  00000+0 -36416-4 0  9991
2 45457  87.8998 190.8413 0001668 105.2816 254.8497 13.11418525190578
ONEWEB-0102             
1 47258U 20100A   24044.82204897 -.00000100  00000+0 -31465-3 0  9997
2 47258  87.9045 160.6903 0001450 105.8055 254.3234 13.12446371152665
ONEWEB-0109             
1 47259U 20100B   24044.82999174  .00000097  00000+0  23344-3 0  9997
2 47259  87.9051 160.6516 0001577 103.5582 256.5722 13.12443503152494
ONEWEB-0110             
1 47260U 20100C   24044.85381432  .00000346  00000+0  92602-3 0  9994
2 47260  87.9040 160.6591 0001649 101.7762 258.3551 13.12442482152661
ONEWEB-0111             
1 47261U 20100D   24044.81092600 -.00000373  00000+0 -10722-2 0  9991
2 47261  87.9046 160.6588 0001620 103.5236 256.6073 13.12442965152496
ONEWEB-0114             
1 47262U 20100E   24044.84111252  .00000429  00000+0  11568-2 0  9999
2 47262  87.9041 160.6732 0001129 105.6465 254.4788 13.12443507152452
ONEWEB-0117             
1 47263U 20100F   24044.83317308  .00000188  00000+0  48681-3 0  9998
2 47263  87.9047 160.6448 0001709 107.1289 253.0027 13.12443634152461
